NORAD_CAT_ID,OBJECT_NAME,OBJECT_TYPE,EPOCH,MEAN_MOTION,ECCENTRICITY,INCLINATION,RA_OF_ASC_NODE,ARG_OF_PERICENTER,MEAN_ANOMALY,BSTAR,MEAN_MOTION_DOT,MEAN_MOTION_DDOT,TLE_LINE0,TLE_LINE1,TLE_LINE2,SEMIMAJOR_AXIS,PERIOD,APOGEE,PERIGEE,DECAYED
56802.0,STARLINK-6070,PAYLOAD,2024-07-29 20:46:46,14.9833131,0.0002989,70.0018,6.5542,277.0793,83.0026,1.218e-05,5.2e-07,0.0,0 STARLINK-6070,1 56802U 23078AM  24211.86581271  .00000052  00000-0  12180-4 0  9992,2 56802  70.0018   6.5542 0002989 277.0793  83.0026 14.98331310 65388,6950.189,96.107,574.131,569.976,0.0
56802.0,STARLINK-6070,PAYLOAD,2024-07-30 09:35:50,14.98329985,0.0002961,70.0019,5.2078,275.8766,84.2055,-4.8515e-05,-6.72e-06,0.0,0 STARLINK-6070,1 56802U 23078AM  24212.39989499 -.00000672  00000-0 -48515-4 0  9996,2 56802  70.0019   5.2078 0002961 275.8766  84.2055 14.98329985 65206,6950.193,96.107,574.116,570.0,0.0
56802.0,STARLINK-6070,PAYLOAD,2024-07-31 03:13:19,14.98332567,0.0002939,70.002,3.3568,271.0871,88.9951,-1.9294e-05,-3.23e-06,0.0,0 STARLINK-6070,1 56802U 23078AM  24213.13425122 -.00000323  00000-0 -19294-4 0  9992,2 56802  70.0020   3.3568 0002939 271.0871  88.9951 14.98332567 65577,6950.185,96.107,574.093,570.007,0.0
56802.0,STARLINK-6070,PAYLOAD,2024-07-31 14:26:16,14.98328991,0.0002915,70.0023,2.1797,266.1021,93.9804,-0.0001294,-1.637e-05,0.0,0 STARLINK-6070,1 56802U 23078AM  24213.60157735 -.00001637  00000-0 -12940-3 0  9995,2 56802  70.0023   2.1797 0002915 266.1021  93.9804 14.98328991 65385,6950.196,96.107,574.087,570.035,0.0
56802.0,STARLINK-6070,PAYLOAD,2024-07-31 19:14:40,14.98328502,0.0003033,70.0018,1.6738,268.5786,91.5026,-5.2426e-05,-7.18e-06,0.0,0 STARLINK-6070,1 56802U 23078AM  24213.80185485 -.00000718  00000-0 -52426-4 0  9993,2 56802  70.0018   1.6738 0003033 268.5786  91.5026 14.98328502 65416,6950.198,96.107,574.171,569.955,0.0
56802.0,STARLINK-6070,PAYLOAD,2024-08-01 03:15:20,14.98331925,0.0003015,70.0019,0.8329,268.6484,91.433,-8.0869e-07,-1.03e-06,0.0,0 STARLINK-6070,1 56802U 23078AM  24214.13565161 -.00000103  00000-0 -80869-6 0  9995,2 56802  70.0019   0.8329 0003015 268.6484  91.4330 14.98331925 65724,6950.187,96.107,574.147,569.956,0.0
56802.0,STARLINK-6070,PAYLOAD,2024-08-01 11:15:58,14.98356364,0.0002898,70.0023,359.9917,264.423,95.6598,0.00028992,3.37e-05,0.0,0 STARLINK-6070,1 56802U 23078AM  24214.46942810  .00003370  00000-0  28992-3 0  9994,2 56802  70.0023 359.9917 0002898 264.4230  95.6598 14.98356364 65514,6950.111,96.105,573.991,569.962,0.0
56802.0,STARLINK-6070,PAYLOAD,2024-08-01 19:16:38,14.98362229,0.0002949,70.0022,359.1496,269.0501,91.0321,0.00031443,3.664e-05,0.0,0 STARLINK-6070,1 56802U 23078AM  24214.80321839  .00003664  00000-0  31443-3 0  9995,2 56802  70.0022 359.1496 0002949 269.0501  91.0321 14.98362229 65562,6950.093,96.105,574.008,569.909,0.0
56802.0,STARLINK-6070,PAYLOAD,2024-08-02 12:54:09,14.98321878,0.0003001,70.0001,357.2965,269.6526,90.4289,-2.0759e-05,-3.41e-06,0.0,0 STARLINK-6070,1 56802U 23078AM  24215.53760957 -.00000341  00000-0 -20759-4 0  9994,2 56802  70.0001 357.2965 0003001 269.6526  90.4289 14.98321878 65934,6950.218,96.108,574.169,569.997,0.0
56802.0,STARLINK-6070,PAYLOAD,2024-08-02 14:30:18,14.98312129,0.0003309,70.0015,357.1292,277.6832,82.3951,-0.0001194,-1.517e-05,0.0,0 STARLINK-6070,1 56802U 23078AM  24215.60437918 -.00001517  00000-0 -11940-3 0  9997,2 56802  70.0015 357.1292 0003309 277.6832  82.3951 14.98312129 65688,6950.248,96.108,574.413,569.813,0.0
56802.0,STARLINK-6070,PAYLOAD,2024-08-02 19:18:42,14.98317233,0.0003175,70.0016,356.624,275.067,85.0127,-0.00012822,-1.622e-05,0.0,0 STARLINK-6070,1 56802U 23078AM  24215.80465732 -.00001622  00000-0 -12822-3 0  9991,2 56802  70.0016 356.6240 0003175 275.0670  85.0127 14.98317233 65977,6950.232,96.108,574.304,569.891,0.0
56802.0,STARLINK-6070,PAYLOAD,2024-08-03 12:56:10,14.98333391,0.0002988,70.0015,354.7724,278.4435,81.6385,-0.00015975,-1.999e-05,0.0,0 STARLINK-6070,1 56802U 23078AM  24216.53901077 -.00001999  00000-0 -15975-3 0  9998,2 56802  70.0015 354.7724 0002988 278.4435  81.6385 14.98333391 66083,6950.182,96.107,574.124,569.971,0.0
56802.0,STARLINK-6070,PAYLOAD,2024-08-03 14:32:18,14.98330818,0.0003165,70.0015,354.6041,276.7387,83.3411,-0.00010545,-1.351e-05,0.0,0 STARLINK-6070,1 56802U 23078AM  24216.60577035 -.00001351  00000-0 -10545-3 0  9999,2 56802  70.0015 354.6041 0003165 276.7387  83.3411 14.98330818 65831,6950.19,96.107,574.255,569.856,0.0
56802.0,STARLINK-6070,PAYLOAD,2024-08-03 19:20:41,14.9834951,0.0003142,70.0015,354.0991,276.9483,83.1318,-0.00019506,-2.421e-05,0.0,0 STARLINK-6070,1 56802U 23078AM  24216.80603954 -.00002421  00000-0 -19506-3 0  9996,2 56802  70.0015 354.0991 0003142 276.9483  83.1318 14.98349510 66129,6950.133,96.106,574.181,569.814,0.0
56802.0,STARLINK-6070,PAYLOAD,2024-08-04 12:58:11,14.9831516,0.0003138,70.0017,352.2475,280.989,79.0916,0.00010974,1.216e-05,0.0,0 STARLINK-6070,1 56802U 23078AM  24217.54041348  .00001216  00000-0  10974-3 0  9990,2 56802  70.0017 352.2475 0003138 280.9890  79.0916 14.98315160 66234,6950.239,96.108,574.285,569.923,0.0
56802.0,STARLINK-6070,PAYLOAD,2024-08-04 19:22:43,14.98316232,0.0002562,70.0033,351.5763,278.6827,81.4042,0.00026467,3.065e-05,0.0,0 STARLINK-6070,1 56802U 23078AM  24217.80745089  .00003065  00000-0  26467-3 0  9990,2 56802  70.0033 351.5763 0002562 278.6827  81.4042 14.98316232 66012,6950.235,96.108,573.881,570.32,0.0
56802.0,STARLINK-6070,PAYLOAD,2024-08-05 01:47:16,14.98321536,0.0002597,70.0031,350.9041,270.4859,89.6002,0.00014226,1.605e-05,0.0,0 STARLINK-6070,1 56802U 23078AM  24218.07449129  .00001605  00000-0  14226-3 0  9994,2 56802  70.0031 350.9041 0002597 270.4859  89.6002 14.98321536 66317,6950.219,96.108,573.889,570.279,0.0
56802.0,STARLINK-6070,PAYLOAD,2024-08-05 17:48:35,14.98336541,0.0002879,70.0024,349.2191,275.6771,84.4059,7.7358e-05,8.3e-06,0.0,0 STARLINK-6070,1 56802U 23078AM  24218.74208218  .00000830  00000-0  77358-4 0  9995,2 56802  70.0024 349.2191 0002879 275.6771  84.4059 14.98336541 66417,6950.173,96.107,574.039,570.037,0.0
56802.0,STARLINK-6070,PAYLOAD,2024-08-06 01:49:16,14.98332337,0.0002876,70.0023,348.3769,274.5001,85.5829,-4.5866e-05,-6.4e-06,0.0,0 STARLINK-6070,1 56802U 23078AM  24219.07588660 -.00000640  00000-0 -45866-4 0  9994,2 56802  70.0023 348.3769 0002876 274.5001  85.5829 14.98332337 66469,6950.186,96.107,574.05,570.052,0.0
56802.0,STARLINK-6070,PAYLOAD,2024-08-06 11:26:05,14.98323813,0.0002671,70.0026,347.3695,264.8399,95.2456,-8.3658e-05,-1.091e-05,0.0,0 STARLINK-6070,1 56802U 23078AM  24219.47645453 -.00001091  00000-0 -83658-4 0  9994,2 56802  70.0026 347.3695 0002671 264.8399  95.2456 14.98323813 66524,6950.212,96.107,573.933,570.221,0.0
56802.0,STARLINK-6070,PAYLOAD,2024-08-06 14:38:21,14.98321803,0.0002554,70.0032,347.0318,267.9632,92.1234,-5.1602e-05,-7.08e-06,0.0,0 STARLINK-6070,1 56802U 23078AM  24219.60997555 -.00000708  00000-0 -51602-4 0  9990,2 56802  70.0032 347.0318 0002554 267.9632  92.1234 14.98321803 66284,6950.218,96.108,573.858,570.308,0.0
56802.0,STARLINK-6070,PAYLOAD,2024-08-06 17:50:38,14.98320299,0.0002642,70.0027,346.6952,265.5186,94.5671,-9.385e-05,-1.212e-05,0.0,0 STARLINK-6070,1 56802U 23078AM  24219.74349814 -.00001212  00000-0 -93850-4 0  9996,2 56802  70.0027 346.6952 0002642 265.5186  94.5671 14.98320299 66305,6950.223,96.108,573.924,570.252,0.0
56802.0,STARLINK-6070,PAYLOAD,2024-08-07 11:28:05,14.98333754,0.0002874,70.0024,344.8437,268.5447,91.5383,-3.7445e-06,-1.38e-06,0.0,0 STARLINK-6070,1 56802U 23078AM  24220.47784693 -.00000138  00000-0 -37445-5 0  9991,2 56802  70.0024 344.8437 0002874 268.5447  91.5383 14.98333754 66677,6950.181,96.107,574.044,570.049,0.0
56802.0,STARLINK-6070,PAYLOAD,2024-08-07 13:04:14,14.98331744,0.0002933,70.0024,344.6753,268.0193,92.063,2.6929e-05,2.28e-06,0.0,0 STARLINK-6070,1 56802U 23078AM  24220.54460723  .00000228  00000-0  26929-4 0  9996,2 56802  70.0024 344.6753 0002933 268.0193  92.0630 14.98331744 66426,6950.187,96.107,574.091,570.014,0.0
56802.0,STARLINK-6070,PAYLOAD,2024-08-07 17:52:37,14.98337796,0.0003014,70.0027,344.1707,272.1745,87.9069,7.567e-05,8.1e-06,0.0,0 STARLINK-6070,1 56802U 23078AM  24220.74488152  .00000810  00000-0  75670-4 0  9998,2 56802  70.0027 344.1707 0003014 272.1745  87.9069 14.98337796 66458,6950.169,96.106,574.129,569.939,0.0
56802.0,STARLINK-6070,PAYLOAD,2024-08-08 16:18:30,14.98328953,0.0002749,70.0034,341.8146,258.7033,101.3817,0.0001022,1.127e-05,0.0,0 STARLINK-6070,1 56802U 23078AM  24221.67952496  .00001127  00000-0  10220-3 0  9999,2 56802  70.0034 341.8146 0002749 258.7033 101.3817 14.98328953 66852,6950.196,96.107,573.972,570.151,0.0
56802.0,STARLINK-6070,PAYLOAD,2024-08-09 14:44:23,14.98336017,0.0002773,70.0023,339.4584,264.1093,95.975,-2.1035e-05,-3.44e-06,0.0,0 STARLINK-6070,1 56802U 23078AM  24222.61416201 -.00000344  00000-0 -21035-4 0  9992,2 56802  70.0023 339.4584 0002773 264.1093  95.9750 14.98336017 66734,6950.174,96.107,573.967,570.112,0.0
56802.0,STARLINK-6070,PAYLOAD,2024-08-09 17:56:39,14.98336704,0.0002811,70.0025,339.1226,262.955,97.1289,-6.484e-06,-1.7e-06,0.0,0 STARLINK-6070,1 56802U 23078AM  24222.74768108 -.00000170  00000-0 -64840-5 0  9991,2 56802  70.0025 339.1226 0002811 262.9550  97.1289 14.98336704 67019,6950.172,96.107,573.991,570.083,0.0
56802.0,STARLINK-6070,PAYLOAD,2024-08-10 13:10:17,14.98319136,0.0002414,70.004,337.1016,260.0984,99.9902,-5.6269e-05,-7.64e-06,0.0,0 STARLINK-6070,1 56802U 23078AM  24223.54881514 -.00000764  00000-0 -56269-4 0  9991,2 56802  70.0040 337.1016 0002414 260.0984  99.9902 14.98319136 67135,6950.226,96.108,573.769,570.414,0.0
56802.0,STARLINK-6070,PAYLOAD,2024-08-10 14:46:25,14.98324347,0.0002376,70.003,336.932,263.416,96.6729,-5.838e-05,-7.89e-06,0.0,0 STARLINK-6070,1 56802U 23078AM  24223.61557233 -.00000789  00000-0 -58380-4 0  9990,2 56802  70.0030 336.9320 0002376 263.4160  96.6729 14.98324347 66881,6950.21,96.107,573.727,570.424,0.0
